OBJECT_NAME,OBJECT_ID,EPOCH,MEAN_MOTION,ECCENTRICITY,INCLINATION,RA_OF_ASC_NODE,ARG_OF_PERICENTER,MEAN_ANOMALY,EPHEMERIS_TYPE,CLASSIFICATION_TYPE,NORAD_CAT_ID,ELEMENT_SET_NO,REV_AT_EPOCH,BSTAR,MEAN_MOTION_DOT,MEAN_MOTION_DDOT
SL-16 R/B,1994-077B,2026-06-17T21:33:10.281888,14.15572391,.00029313,70.9809,141.6668,327.7146,32.3797,0,U,23405,999,63041,.94069896E-4,.136E-5,0
ARIANE 40+ R/B,1995-021B,2026-06-17T19:55:11.877312,14.39833702,.00064995,98.4412,238.8956,191.6720,287.6471,0,U,23561,999,63365,.79999391E-4,.208E-5,0
SL-16 R/B,1995-058B,2026-06-17T20:08:26.066976,14.15508921,.00138027,71.0221,329.9893,319.5730,40.4366,0,U,23705,999,58202,.16986294E-3,.285E-5,0
SL-16 R/B,1996-051B,2026-06-17T21:08:55.277376,14.12446085,.00155249,70.7641,323.1797,335.8537,24.1853,0,U,24298,999,53579,.86860228E-4,.111E-5,0
ORBVIEW 2 (SEASTAR),1997-037A,2026-06-17T22:13:31.985760,14.35553581,.00032122,98.8688,335.9655,114.5841,245.5678,0,U,24883,999,52285,.70117737E-4,.155E-5,0
SL-16 R/B,1998-043G,2026-06-17T20:29:51.199584,14.26068691,.00109459,98.8364,123.0190,84.6131,275.6297,0,U,25400,999,45326,.3175184E-4,.31E-6,0
SL-16 R/B,1998-045B,2026-06-17T20:55:05.940192,14.16202944,.00093599,71.0117,330.8901,240.7930,119.2257,0,U,25407,999,44128,-.90675861E-4,-.227E-5,0
ISS (ZARYA),1998-067A,2026-06-17T20:01:43.055040,15.49287853,.00047525,51.6335,296.8886,198.5228,161.5588,0,U,25544,999,57185,.19786693E-3,.10577E-3,0
CZ-4B R/B,1999-025C,2026-06-17T15:24:14.778144,14.18283596,.00380459,98.6483,210.4689,58.4012,53.4255,0,U,25732,999,40233,.33616375E-4,.27E-6,0
OKEAN-O,1999-039A,2026-06-17T18:04:25.438080,14.80467841,.00015848,97.9316,227.5445,72.3210,287.8175,0,U,25860,999,44919,.68577806E-4,.472E-5,0
SL-16 R/B,1999-039B,2026-06-17T18:35:01.230720,14.81845612,.0013464,97.9837,227.6356,294.7753,65.2059,0,U,25861,999,45168,.51049349E-4,.35E-5,0
DELTA 2 R/B,1999-041E,2026-06-17T11:00:19.095840,14.12016533,.05008437,51.7654,262.7127,282.8187,71.7250,0,U,25876,999,37712,.11122115E-3,.455E-5,0
HELIOS 1B,1999-064A,2026-06-17T15:35:03.719904,14.88007501,.00024987,98.1614,73.8025,90.6257,269.5245,0,U,25977,999,70012,.12049627E-3,.1047E-4,0
TERRA,1999-068A,2026-06-17T21:58:53.940576,14.61103628,.0001636,97.9456,218.4333,186.9393,276.8108,0,U,25994,999,40971,.71963966E-4,.309E-5,0
SL-16 R/B,2000-006B,2026-06-17T15:07:46.418304,14.15834058,.00155488,71.0020,247.6933,22.3684,337.8113,0,U,26070,999,36270,.19235074E-4,-.1E-6,0
TITAN 4B R/B,2000-047B,2026-06-17T22:06:36.494208,15.10201123,.00457861,67.9882,118.5072,286.3497,73.2621,0,U,26474,999,40804,.15519722E-3,.2464E-4,0
ENVISAT,2002-009A,2026-06-17T21:00:36.288864,14.39064928,.00013443,98.3834,120.1785,88.6561,335.0525,0,U,27386,999,27358,.34042204E-4,.62E-6,0
IDEFIX & ARIANE 42P R/B,2002-021B,2026-06-17T19:53:23.246592,14.31082352,.00105985,98.5942,106.3049,251.8310,108.1719,0,U,27422,999,25834,.77669441E-4,.161E-5,0
AQUA,2002-022A,2026-06-17T22:38:43.317024,14.62159178,.00010729,98.4277,138.2414,53.5586,6.3852,0,U,27424,999,28338,.1306508E-3,.608E-5,0
CZ-4B R/B,2002-024C,2026-06-17T17:53:07.362240,14.14564497,.00512096,98.8700,221.5618,98.7014,12.1074,0,U,27432,999,24338,.34968111E-4,.24E-6,0
MIDORI II (ADEOS-II),2002-056A,2026-06-17T20:06:50.202720,14.29349907,.00021996,98.7878,128.1034,76.2034,283.9392,0,U,27597,999,22460,.93759227E-4,.193E-5,0
H-2A R/B,2002-056E,2026-06-17T20:20:48.193728,14.33822261,.00692101,98.3312,125.4981,222.5723,191.0775,0,U,27601,999,22846,.65512199E-4,.145E-5,0
CZ-4B R/B,2003-049C,2026-06-17T20:24:09.396000,14.55100528,.00469481,98.6896,167.7230,286.5186,73.0855,0,U,28059,999,20116,.6149723E-4,.217E-5,0
CZ-2C R/B,2004-012C,2026-06-17T17:31:56.064864,15.79076880,.00094406,97.7072,244.4574,281.7623,78.2584,0,U,28222,999,21998,.50237283E-3,.89981E-3,0
SL-16 R/B,2004-021B,2026-06-17T20:50:30.144480,14.14608061,.00072498,71.0007,22.2595,254.0982,105.9341,0,U,28353,999,13700,-.9784257E-4,-.236E-5,0
CZ-4B R/B,2004-035C,2026-06-17T15:44:04.812000,15.30632117,.00298259,97.3361,201.7238,336.2795,23.7069,0,U,28415,999,19519,.20620251E-3,.611E-4,0
CZ-2C R/B,2004-046B,2026-06-17T18:03:31.233312,14.27026587,.01385125,98.1945,77.4980,218.5870,140.5350,0,U,28480,999,12277,.36708266E-4,.57E-6,0
ARIANE 5 R/B,2004-049H,2026-06-17T22:31:31.810368,14.85449965,.00844506,98.2721,341.2203,27.0202,333.5371,0,U,28499,999,16067,.59751353E-4,.484E-5,0
CZ-2D R/B,2005-024B,2026-06-17T20:33:51.580800,15.69618732,.0003275,97.3481,188.3185,52.3725,307.7834,0,U,28738,999,15544,.4362053E-3,.51641E-3,0
ALOS (DAICHI),2006-002A,2026-06-17T20:08:30.616800,14.70051683,.00014287,98.1323,124.4045,56.9447,303.1896,0,U,28931,999,8819,.15035887E-3,.853E-5,0
