SL-16 R/B               
1 23405U 94077B   26168.89803567  .00000136  00000+0  94070-4 0  9993
2 23405  70.9809 141.6668 0002931 327.7146  32.3797 14.15572391630419
ARIANE 40+ R/B          
1 23561U 95021B   26168.82999858  .00000208  00000+0  79999-4 0  9991
2 23561  98.4412 238.8956 0006499 191.6720 287.6471 14.39833702633650
SL-16 R/B               
1 23705U 95058B   26168.83919059  .00000285  00000+0  16986-3 0  9998
2 23705  71.0221 329.9893 0013802 319.5730  40.4366 14.15508921582023
SL-16 R/B               
1 24298U 96051B   26168.88119534  .00000111  00000+0  86860-4 0  9992
2 24298  70.7641 323.1797 0015524 335.8537  24.1853 14.12446085535792
ORBVIEW 2 (SEASTAR)     
1 24883U 97037A   26168.92606465  .00000155  00000+0  70118-4 0  9993
2 24883  98.8688 335.9655 0003212 114.5841 245.5678 14.35553581522851
SL-16 R/B               
1 25400U 98043G   26168.85406481  .00000031  00000+0  31752-4 0  9999
2 25400  98.8364 123.0190 0010945  84.6131 275.6297 14.26068691453260
SL-16 R/B               
1 25407U 98045B   26168.87159653 -.00000227  00000+0 -90676-4 0  9995
2 25407  71.0117 330.8901 0009359 240.7930 119.2257 14.16202944441281
ISS (ZARYA)             
1 25544U 98067A   26168.83452610  .00010577  00000+0  19787-3 0  9996
2 25544  51.6335 296.8886 0004752 198.5228 161.5588 15.49287853571857
CZ-4B R/B               
1 25732U 99025C   26168.64183771  .00000027  00000+0  33616-4 0  9995
2 25732  98.6483 210.4689 0038045  58.4012  53.4255 14.18283596402332
OKEAN-O                 
1 25860U 99039A   26168.75307220  .00000472  00000+0  68578-4 0  9990
2 25860  97.9316 227.5445 0001584  72.3210 287.8175 14.80467841449198
SL-16 R/B               
1 25861U 99039B   26168.77431980  .00000350  00000+0  51049-4 0  9994
2 25861  97.9837 227.6356 0013464 294.7753  65.2059 14.81845612451684
DELTA 2 R/B             
1 25876U 99041E   26168.45855435  .00000455  00000+0  11122-3 0  9996
2 25876  51.7654 262.7127 0500843 282.8187  71.7250 14.12016533377129
HELIOS 1B               
1 25977U 99064A   26168.64934861  .00001047  00000+0  12050-3 0  9994
2 25977  98.1614  73.8025 0002498  90.6257 269.5245 14.88007501700125
TERRA                   
1 25994U 99068A   26168.91590209  .00000309  00000+0  71964-4 0  9991
2 25994  97.9456 218.4333 0001636 186.9393 276.8108 14.61103628409715
SL-16 R/B               
1 26070U 00006B   26168.63039836 -.00000010  00000+0  19235-4 0  9997
2 26070  71.0020 247.6933 0015548  22.3684 337.8113 14.15834058362702
TITAN 4B R/B            
1 26474U 00047B   26168.92125572  .00002464  00000+0  15520-3 0  9991
2 26474  67.9882 118.5072 0045786 286.3497  73.2621 15.10201123408041
ENVISAT                 
1 27386U 02009A   26168.87542001  .00000062  00000+0  34042-4 0  9991
2 27386  98.3834 120.1785 0001344  88.6561 335.0525 14.39064928273587
IDEFIX & ARIANE 42P R/B 
1 27422U 02021B   26168.82874128  .00000161  00000+0  77669-4 0  9991
2 27422  98.5942 106.3049 0010598 251.8310 108.1719 14.31082352258340
AQUA                    
1 27424U 02022A   26168.94355691  .00000608  00000+0  13065-3 0  9991
2 27424  98.4277 138.2414 0001072  53.5586   6.3852 14.62159178283385
CZ-4B R/B               
1 27432U 02024C   26168.74522410  .00000024  00000+0  34968-4 0  9993
2 27432  98.8700 221.5618 0051209  98.7014  12.1074 14.14564497243383
MIDORI II (ADEOS-II)    
1 27597U 02056A   26168.83808105  .00000193  00000+0  93759-4 0  9998
2 27597  98.7878 128.1034 0002199  76.2034 283.9392 14.29349907224609
H-2A R/B                
1 27601U 02056E   26168.84778002  .00000145  00000+0  65512-4 0  9990
2 27601  98.3312 125.4981 0069210 222.5723 191.0775 14.33822261228469
CZ-4B R/B               
1 28059U 03049C   26168.85010875  .00000217  00000+0  61497-4 0  9997
2 28059  98.6896 167.7230 0046948 286.5186  73.0855 14.55100528201164
CZ-2C R/B               
1 28222U 04012C   26168.73051001  .00089981  00000+0  50237-3 0  9997
2 28222  97.7072 244.4574 0009440 281.7623  78.2584 15.79076880219980
SL-16 R/B               
1 28353U 04021B   26168.86840445 -.00000236  00000+0 -97843-4 0  9997
2 28353  71.0007  22.2595 0007249 254.0982 105.9341 14.14608061137000
CZ-4B R/B               
1 28415U 04035C   26168.65561125  .00006110  00000+0  20620-3 0  9996
2 28415  97.3361 201.7238 0029825 336.2795  23.7069 15.30632117195196
CZ-2C R/B               
1 28480U 04046B   26168.75244483  .00000057  00000+0  36708-4 0  9995
2 28480  98.1945  77.4980 0138512 218.5870 140.5350 14.27026587122775
ARIANE 5 R/B            
1 28499U 04049H   26168.93856262  .00000484  00000+0  59751-4 0  9999
2 28499  98.2721 341.2203 0084450  27.0202 333.5371 14.85449965160672
CZ-2D R/B               
1 28738U 05024B   26168.85684700  .00051641  00000+0  43621-3 0  9995
2 28738  97.3481 188.3185 0003275  52.3725 307.7834 15.69618732155446
ALOS (DAICHI)           
1 28931U 06002A   26168.83924325  .00000853  00000+0  15036-3 0  9993
2 28931  98.1323 124.4045 0001428  56.9447 303.1896 14.70051683 88192
